[{"OBJECT_NAME":"STARLINK-5344","OBJECT_ID":"2023-015AX","EPOCH":"2026-03-09T22:00:01.999584","MEAN_MOTION":15.10994868,"ECCENTRICITY":0.00016686,"INCLINATION":42.9995,"RA_OF_ASC_NODE":337.1804,"ARG_OF_PERICENTER":251.7021,"MEAN_ANOMALY":145.4845,"EPHEMERIS_TYPE":0,"CLASSIFICATION_TYPE":"U","NORAD_CAT_ID":55494,"ELEMENT_SET_NO":999,"REV_AT_EPOCH":577,"BSTAR":0.00071850787,"MEAN_MOTION_DOT":0.00012008,"MEAN_MOTION_DDOT":0},{"OBJECT_NAME":"COSMOS 397 DEB","OBJECT_ID":"1971-015E","EPOCH":"2026-03-09T10:30:57.269376","MEAN_MOTION":14.28908045,"ECCENTRICITY":0.03830098,"INCLINATION":65.6692,"RA_OF_ASC_NODE":75.3326,"ARG_OF_PERICENTER":62.267,"MEAN_ANOMALY":301.6716,"EPHEMERIS_TYPE":0,"CLASSIFICATION_TYPE":"U","NORAD_CAT_ID":5011,"ELEMENT_SET_NO":999,"REV_AT_EPOCH":70661,"BSTAR":0.0012879344,"MEAN_MOTION_DOT":7.13e-5,"MEAN_MOTION_DDOT":0}]
